[{"OBJECT_NAME":"STARLINK-30905","OBJECT_ID":"2023-177F","EPOCH":"2026-03-09T02:36:31.875264","MEAN_MOTION":15.2674188,"ECCENTRICITY":0.00015998,"INCLINATION":43.0027,"RA_OF_ASC_NODE":353.4154,"ARG_OF_PERICENTER":257.5551,"MEAN_ANOMALY":102.5121,"EPHEMERIS_TYPE":0,"CLASSIFICATION_TYPE":"U","NORAD_CAT_ID":58356,"ELEMENT_SET_NO":999,"REV_AT_EPOCH":12808,"BSTAR":0.00012664275,"MEAN_MOTION_DOT":3.139e-5,"MEAN_MOTION_DDOT":0},{"OBJECT_NAME":"GESAT GEN1","OBJECT_ID":"2025-009D","EPOCH":"2026-03-09T17:26:20.087232","MEAN_MOTION":15.26847505,"ECCENTRICITY":8.879e-5,"INCLINATION":97.4058,"RA_OF_ASC_NODE":151.4598,"ARG_OF_PERICENTER":98.3547,"MEAN_ANOMALY":261.7793,"EPHEMERIS_TYPE":0,"CLASSIFICATION_TYPE":"U","NORAD_CAT_ID":62612,"ELEMENT_SET_NO":999,"REV_AT_EPOCH":6373,"BSTAR":0.00038326131,"MEAN_MOTION_DOT":0.00010041,"MEAN_MOTION_DDOT":0}]
